satname,norad_id,inclination_deg,eccentricity,mean_motion_rev_per_day,perigee_km,apogee_km,l1,l2
STARLINK-1325,45554,53.0616,0.0005412,15.5045768,411.71216233391897,419.06547467987184,1 45554U 20025Z   25282.49227387  .00249779  00000+0  41827-2 0  9994,2 45554  53.0616 359.1383 0005412  31.6422 328.4910 15.50457680303248
STARLINK-1327,45555,53.0515,0.0001854,15.06411246,545.8931375499951,548.4610440148572,1 45555U 20025AA  25282.66435661  .00002979  00000+0  21871-3 0  9997,2 45555  53.0515  44.5962 0001854  86.6466 273.4735 15.06411246302601
STARLINK-1336,45557,53.0385,0.0002058,15.98728998,276.57430186227975,279.31394485265446,1 45557U 20025AC  25282.60450698  .00377630  70606-4  77894-3 0  9999,2 45557  53.0385 349.3694 0002058  42.8248 317.2941 15.98728998303372
STARLINK-1356,45564,53.053,0.0001103,15.06407341,546.4251954576448,547.9529223862428,1 45564U 20025AK  25282.07093218  .00003215  00000+0  23458-3 0  9997,2 45564  53.0530  47.2585 0001103  92.2940 267.8176 15.06407341302513
STARLINK-1357,45565,53.0643,0.0004802,15.28780591,476.16343121353293,482.7494639605957,1 45565U 20025AL  25282.64454791  .00077035  00000+0  27008-2 0  9993,2 45565  53.0643  33.3899 0004802 225.6156 134.4450 15.28780591302769
STARLINK-1361,45567,53.0541,0.0001404,15.06413276,546.1985559843615,548.1431824340361,1 45567U 20025AN  25282.75281169  .00001562  00000+0  12366-3 0  9998,2 45567  53.0541  44.1981 0001404  89.7241 270.3909 15.06413276302622
STARLINK-1363,45568,53.0518,0.0001929,15.06396694,545.8857886792848,548.5575920620304,1 45568U 20025AP  25282.70126574  .00000183  00000+0  31185-4 0  9991,2 45568  53.0518  44.6694 0001929 103.7064 256.4139 15.06396694302607
STARLINK-1366,45569,53.0562,9.36e-05,15.06889197,545.0645728943991,546.3607175479856,1 45569U 20025AQ  25282.82262056  .00140179  00000+0  91232-2 0  9998,2 45569  53.0562  43.8888 0000936  58.6226 301.4854 15.06889197302620
STARLINK-1376,45570,53.0547,0.0001427,15.06415476,546.1758861625312,548.1523671040723,1 45570U 20025AR  25282.68279022  .00002869  00000+0  21134-3 0  9993,2 45570  53.0547  44.5130 0001427  85.3573 274.7579 15.06415476302600
STARLINK-1320,45572,53.0604,0.000826,15.39078214,443.19475699558825,454.47291281485195,1 45572U 20025AT  25282.46963709  .00063435  00000+0  16093-2 0  9996,2 45572  53.0604 354.1367 0008260 279.9577  80.0494 15.39078214303319
STARLINK-1321,45573,53.0539,0.0001475,15.06420948,546.1258766368128,548.1688355218566,1 45573U 20025AU  25282.66896160  .00004041  00000+0  28986-3 0  9998,2 45573  53.0539  34.5760 0001475  92.0954 268.0204 15.06420948302446
STARLINK-1328,45576,53.0551,0.000724,15.60789239,380.4792809437504,390.2728478610052,1 45576U 20025AX  25282.60516115  .00129129  00000+0  15023-2 0  9996,2 45576  53.0551  20.1928 0007240 309.2089  50.8281 15.60789239302957
STARLINK-1331,45578,53.0592,6.4e-05,15.06398756,546.7721480700129,547.6585931734526,1 45578U 20025AZ  25282.51416624 -.00004606  00000+0 -29055-3 0  9997,2 45578  53.0592  35.2698 0000640  93.0321 267.0741 15.06398756302738
STARLINK-1333,45580,53.0546,0.0001361,15.06416861,546.2173489780871,548.102414789335,1 45580U 20025BB  25282.52060329  .00001948  00000+0  14957-3 0  9997,2 45580  53.0546  45.2401 0001361  94.1367 265.9777 15.06416861302583
STARLINK-1335,45581,53.0547,0.0001785,15.06392886,545.997182799968,548.4695400189921,1 45581U 20025BC  25282.65792284 -.00001182  00000+0 -60490-4 0  9990,2 45581  53.0547  34.6262 0001785  82.9711 277.1481 15.06392886302745
STARLINK-1337,45582,53.0576,0.0001434,15.06395604,546.2319341626462,548.2181279931592,1 45582U 20025BD  25282.48099580 -.00002621  00000+0 -15717-3 0  9991,2 45582  53.0576  35.4259 0001434  95.6851 264.4301 15.06395604302718
STARLINK-1347,45586,53.0558,0.0004932,15.28032755,478.3104509389932,485.0769879606587,1 45586U 20025BH  25282.43424037  .00058132  00000+0  20935-2 0  9992,2 45586  53.0558  24.7386 0004932 240.6817 119.3689 15.28032755302855
STARLINK-1360,45588,53.0468,0.0006037,15.70341392,353.8539956705017,361.9871115607384,1 45588U 20025BK  25282.33922620  .00075905  00000+0  60892-3 0  9998,2 45588  53.0468 310.7366 0006037  37.5295 322.6143 15.70341392303890
STARLINK-1364,45589,53.0552,0.0001684,15.06392141,546.0694119927175,548.4018774994674,1 45589U 20025BL  25282.68372238 -.00002807  00000+0 -16966-3 0  9997,2 45589  53.0552  34.5143 0001684  85.6872 274.4310 15.06392141302747
STARLINK-1365,45590,53.0528,0.0001299,15.06406876,546.2908840285836,548.0900841089442,1 45590U 20025BM  25282.83206450  .00002213  00000+0  16740-3 0  9997,2 45590  53.0528  63.8428 0001299  85.6386 274.4751 15.06406876302363
STARLINK-1443,45660,53.0552,0.0001369,15.06400207,546.2628433824339,548.159003643892,1 45660U 20035D   25282.68465604  .00011230  00000+0  77161-3 0  9990,2 45660  53.0552  24.5082 0001369  72.0516 288.0623 15.06400207295970
STARLINK-1446,45663,53.028,0.0002989,15.30964391,470.8859003173411,474.9814703730399,1 45663U 20035G   25282.47386707  .00034440  00000+0  11421-2 0  9990,2 45663  53.0280 352.4317 0002989 195.6494 164.4414 15.30964391296401
STARLINK-1448,45665,53.0548,0.000139,15.06430134,546.1565924956885,548.0818137201522,1 45665U 20035J   25282.62197402  .00012939  00000+0  88520-3 0  9995,2 45665  53.0548  24.7852 0001390  88.6202 271.4946 15.06430134295950
STARLINK-1451,45668,53.0569,0.0001704,15.06429345,545.9415571306672,548.3016852687724,1 45668U 20035M   25282.69204141  .00007148  00000+0  49790-3 0  9996,2 45668  53.0569  24.7907 0001704  84.2791 275.8393 15.06429345295979
STARLINK-1452,45669,53.0397,0.0008164,15.24294295,487.29582866461715,498.51486660983846,1 45669U 20035N   25282.60855847  .00014490  00000+0  59744-3 0  9991,2 45669  53.0397   9.0549 0008164 295.7571  64.2582 15.24294295296187
STARLINK-1453,45670,53.0554,0.00016,15.06424271,546.0291279502035,548.245215685185,1 45670U 20035P   25282.43675400  .00004061  00000+0  29121-3 0  9998,2 45670  53.0554 355.6212 0001600  96.2097 263.9074 15.06424271296246
STARLINK-1454,45671,53.0571,0.0001328,15.06418528,546.2350941213854,548.0744516162604,1 45671U 20035Q   25282.51507490  .00003167  00000+0  23128-3 0  9998,2 45671  53.0571  25.2688 0001328  88.0207 272.0934 15.06418528295931
STARLINK-1456,45673,53.0545,0.0001736,15.06389802,546.0405675801976,548.445059451451,1 45673U 20035S   25282.66253235 -.00000896  00000+0 -41291-4 0  9991,2 45673  53.0545  24.6078 0001736  87.9879 272.1308 15.06389802295978
STARLINK-1457,45674,53.0553,0.0001443,15.06408476,546.186256292508,548.1849043891943,1 45674U 20035T   25282.47086213  .00011637  00000+0  79866-3 0  9992,2 45674  53.0553  25.4673 0001443  97.2116 262.9037 15.06408476295910
STARLINK-1458,45675,53.0558,0.0001477,15.06416128,546.1392617008805,548.184995063405,1 45675U 20035U   25282.45979060  .00008022  00000+0  55656-3 0  9997,2 45675  53.0558  25.5143 0001477  98.6360 261.4796 15.06416128295900
STARLINK-1460,45676,53.0542,0.0001632,15.06429185,545.9919092737919,548.2523138478055,1 45676U 20035V   25282.62934325  .00006736  00000+0  47028-3 0  9996,2 45676  53.0542  24.7535 0001632  81.9103 278.2071 15.06429185295924
STARLINK-1392,45677,53.0549,0.0001565,15.06416734,546.0764620902573,548.2440801361145,1 45677U 20035W   25282.64039322  .00003606  00000+0  26073-3 0  9992,2 45677  53.0549  24.7049 0001565  91.0688 269.0480 15.06416734295969
STARLINK-1394,45679,53.0555,9.98e-05,15.0640803,546.4957999241988,547.8780945840717,1 45679U 20035Y   25282.63766774  .00016537  00000+0  11262-2 0  9991,2 45679  53.0555  14.7177 0000998  89.4697 270.6406 15.06408030296102
STARLINK-1402,45685,53.0553,0.0001556,15.0638043,546.1939442505409,548.3491313875111,1 45685U 20035AE  25282.53572801 -.00005190  00000+0 -32993-3 0  9993,2 45685  53.0553   9.5975 0001556  79.5148 280.6016 15.06380430296175
STARLINK-1404,45686,53.0549,0.000127,15.06423119,546.2611921710077,548.0202127074272,1 45686U 20035AF  25282.53073610  .00003295  00000+0  23983-3 0  9999,2 45686  53.0549  15.1990 0001270  94.2241 265.8893 15.06423119296093
STARLINK-1413,45689,53.0549,0.0001615,15.06435137,545.9854437865888,548.222296587659,1 45689U 20035AJ  25282.68186215  .00008060  00000+0  55886-3 0  9996,2 45689  53.0549  14.5158 0001615  89.3859 270.7315 15.06435137296028
STARLINK-1417,45693,53.055,0.0001681,15.06402193,546.0406867545298,548.3689866800341,1 45693U 20035AN  25282.67818242  .00000572  00000+0  57314-4 0  9991,2 45693  53.0550  14.5359 0001681 120.5925 239.5230 15.06402193296107
STARLINK-1420,45695,53.0546,0.0001538,15.064344,546.0410265058645,548.1712312923137,1 45695U 20035AQ  25282.48003941  .00010149  00000+0  69861-3 0  9994,2 45695  53.0546 355.4160 0001538  86.0334 274.0831 15.06434400296367
STARLINK-1422,45696,53.0556,0.0001431,15.06412084,546.1835103874037,548.1655345451336,1 45696U 20035AR  25282.49021093  .00009845  00000+0  67870-3 0  9993,2 45696  53.0556  15.3825 0001431  68.9119 291.2023 15.06412084296077
STARLINK-1351,45697,53.0547,0.0001426,15.06404909,546.2089600422642,548.1840651600578,1 45697U 20035AS  25282.46626369  .00013599  00000+0  92992-3 0  9992,2 45697  53.0547 355.4883 0001426  74.4655 285.6491 15.06404909296366
STARLINK-1398,45699,53.0505,0.0001343,15.45372419,429.36964144246576,431.1983833263921,1 45699U 20035AU  25282.82417382  .00080769  00000+0  16562-2 0  9998,2 45699  53.0505 319.9648 0001343 269.2941  90.7911 15.45372419296899
STARLINK-1400,45700,53.0551,0.0001366,15.0641802,546.2103347153306,548.1023248530282,1 45700U 20035AV  25282.50680219  .00009739  00000+0  67146-3 0  9990,2 45700  53.0551 355.3090 0001366  82.2416 277.8728 15.06418020296365
STARLINK-1403,45701,53.057,0.0001534,15.06395453,546.1631432668828,548.2878444800035,1 45701U 20035AW  25282.60263483  .00000411  00000+0  46481-4 0  9990,2 45701  53.0570 354.8748 0001534  96.3485 263.7679 15.06395453296374
